LPNTSAT-002 (IOD-2)
1 68409U 26103.23057870  3.99000-5 1.96814-4 0 0                     
2 68409  97.4099 345.0926 0012876 221.0315 138.9952 15.18417348      
XINZHENGCHENG-01
1 68412U 26103.28420139  3.90000-6 3.86027-5 0 0                     
2 68412  84.9622 269.0378 0027396 117.5521 242.8491 14.88349550      
STARLINK-37262
1 68508U 26103.12241898  1.35263-3 6.76155-4 0 0                     
2 68508  53.1595 336.7684 0000960  70.6283 289.4843 15.80937418      
STARLINK-36292
1 68509U 26103.12166667  1.71862-3 8.54264-4 0 0                     
2 68509  53.1592 336.7633 0000982  66.0634 294.0492 15.80943933      
STARLINK-37260
1 68510U 26103.12091435  1.50277-3 7.49363-4 0 0                     
2 68510  53.1594 336.7582 0000962 118.1171 241.9949 15.80941811      
STARLINK-37280
1 68511U 26103.12017361  1.54782-3 7.71334-4 0 0                     
2 68511  53.1594 336.7530 0001044  90.9282 269.1860 15.80941264      
STARLINK-37286
1 68512U 26103.11942130  1.74868-3 8.68446-4 0 0                     
2 68512  53.1593 336.7481 0000966 109.6437 250.4691 15.80953705      
STARLINK-36250
1 68513U 26103.18188657  1.53891-3 7.66709-4 0 0                     
2 68513  53.1593 336.4258 0000859  33.7850 326.3228 15.80949383      
STARLINK-37251
1 68514U 26103.11791667  1.44332-3 7.20403-4 0 0                     
2 68514  53.1595 336.7379 0001068  72.3031 287.8108 15.80940235      
STARLINK-36293
1 68515U 26103.18038194  1.98278-3 9.81200-4 0 0                     
2 68515  53.1593 336.4165 0000774  77.6333 282.4776 15.80961578      
STARLINK-36290
1 68516U 26103.11641204  1.47267-3 7.34493-4 0 0                     
2 68516  53.1593 336.7280 0000600  80.2708 279.8382 15.80947239      
STARLINK-36298
1 68517U 26103.17888889  2.03373-3 1.00573-3 0 0                     
2 68517  53.1593 336.4061 0000908  59.4271 300.6842 15.80961737      
STARLINK-36857
1 68518U 26103.11416667  2.17497-3 1.07335-3 0 0                     
2 68518  53.1590 336.7126 0000958  82.1236 277.9895 15.80965897      
ELECTRON KICK STAGE R/B
1 68411U 26103.82858796  2.52792-2 8.76040-4 0 0                     
2 68411  97.4039 347.5465 0069944 321.3118  38.3170 16.18968150      
2026-066C
1 68414U 26103.28313657  8.94000-6 9.22997-5 0 0                     
2 68414  84.9622 269.0368 0027988 118.3690 242.0361 14.88508916      
2026-066D
1 68415U 26103.28375000  9.02000-6 9.34316-5 0 0                     
2 68415  84.9622 269.0373 0027414 118.0846 242.3154 14.88423093      
