[{"OBJECT_NAME":"LPNTSAT-002 (IOD-2)","OBJECT_ID":"2026-065B","EPOCH":"2026-04-13T05:32:02.351328","MEAN_MOTION":15.18417348,"ECCENTRICITY":0.00128762,"INCLINATION":97.4099,"RA_OF_ASC_NODE":345.0926,"ARG_OF_PERICENTER":221.0315,"MEAN_ANOMALY":138.9952,"EPHEMERIS_TYPE":0,"CLASSIFICATION_TYPE":"U","NORAD_CAT_ID":68409,"ELEMENT_SET_NO":999,"REV_AT_EPOCH":238,"BSTAR":0.00019681355,"MEAN_MOTION_DOT":3.99e-5,"MEAN_MOTION_DDOT":0},{"OBJECT_NAME":"ELECTRON KICK STAGE R/B","OBJECT_ID":"2026-065D","EPOCH":"2026-04-13T19:53:10.075776","MEAN_MOTION":16.1896815,"ECCENTRICITY":0.0069944,"INCLINATION":97.4039,"RA_OF_ASC_NODE":347.5465,"ARG_OF_PERICENTER":321.3118,"MEAN_ANOMALY":38.317,"EPHEMERIS_TYPE":0,"CLASSIFICATION_TYPE":"U","NORAD_CAT_ID":68411,"ELEMENT_SET_NO":999,"REV_AT_EPOCH":262,"BSTAR":0.00087604,"MEAN_MOTION_DOT":0.02527919,"MEAN_MOTION_DDOT":2.541e-6},{"OBJECT_NAME":"XINZHENGCHENG-01","OBJECT_ID":"2026-066A","EPOCH":"2026-04-13T06:49:15.039840","MEAN_MOTION":14.8834955,"ECCENTRICITY":0.00273969,"INCLINATION":84.9622,"RA_OF_ASC_NODE":269.0378,"ARG_OF_PERICENTER":117.5521,"MEAN_ANOMALY":242.8491,"EPHEMERIS_TYPE":0,"CLASSIFICATION_TYPE":"U","NORAD_CAT_ID":68412,"ELEMENT_SET_NO":999,"REV_AT_EPOCH":207,"BSTAR":3.8602711e-5,"MEAN_MOTION_DOT":3.9e-6,"MEAN_MOTION_DDOT":0},{"OBJECT_NAME":"2026-066C","OBJECT_ID":"2026-066C","EPOCH":"2026-04-13T06:47:43.607904","MEAN_MOTION":14.88508916,"ECCENTRICITY":0.00279886,"INCLINATION":84.9622,"RA_OF_ASC_NODE":269.0368,"ARG_OF_PERICENTER":118.369,"MEAN_ANOMALY":242.0361,"EPHEMERIS_TYPE":0,"CLASSIFICATION_TYPE":"U","NORAD_CAT_ID":68414,"ELEMENT_SET_NO":999,"REV_AT_EPOCH":207,"BSTAR":9.2299729e-5,"MEAN_MOTION_DOT":8.94e-6,"MEAN_MOTION_DDOT":0},{"OBJECT_NAME":"2026-066D","OBJECT_ID":"2026-066D","EPOCH":"2026-04-13T06:48:36.497664","MEAN_MOTION":14.88423093,"ECCENTRICITY":0.00274148,"INCLINATION":84.9622,"RA_OF_ASC_NODE":269.0373,"ARG_OF_PERICENTER":118.0846,"MEAN_ANOMALY":242.3154,"EPHEMERIS_TYPE":0,"CLASSIFICATION_TYPE":"U","NORAD_CAT_ID":68415,"ELEMENT_SET_NO":999,"REV_AT_EPOCH":207,"BSTAR":9.3431582e-5,"MEAN_MOTION_DOT":9.02e-6,"MEAN_MOTION_DDOT":0},{"OBJECT_NAME":"STARLINK-37262","OBJECT_ID":"2026-068A","EPOCH":"2026-04-13T02:56:17.569248","MEAN_MOTION":15.80937418,"ECCENTRICITY":9.6e-5,"INCLINATION":53.1595,"RA_OF_ASC_NODE":336.7684,"ARG_OF_PERICENTER":70.6283,"MEAN_ANOMALY":289.4843,"EPHEMERIS_TYPE":0,"CLASSIFICATION_TYPE":"U","NORAD_CAT_ID":68508,"ELEMENT_SET_NO":999,"REV_AT_EPOCH":211,"BSTAR":0.0006761552,"MEAN_MOTION_DOT":0.00135263,"MEAN_MOTION_DDOT":0},{"OBJECT_NAME":"STARLINK-36292","OBJECT_ID":"2026-068B","EPOCH":"2026-04-13T02:55:12.821088","MEAN_MOTION":15.80943933,"ECCENTRICITY":9.827e-5,"INCLINATION":53.1592,"RA_OF_ASC_NODE":336.7633,"ARG_OF_PERICENTER":66.0634,"MEAN_ANOMALY":294.0492,"EPHEMERIS_TYPE":0,"CLASSIFICATION_TYPE":"U","NORAD_CAT_ID":68509,"ELEMENT_SET_NO":999,"REV_AT_EPOCH":211,"BSTAR":0.00085426352,"MEAN_MOTION_DOT":0.00171862,"MEAN_MOTION_DDOT":0},{"OBJECT_NAME":"STARLINK-37260","OBJECT_ID":"2026-068C","EPOCH":"2026-04-13T02:54:07.932096","MEAN_MOTION":15.80941811,"ECCENTRICITY":9.628e-5,"INCLINATION":53.1594,"RA_OF_ASC_NODE":336.7582,"ARG_OF_PERICENTER":118.1171,"MEAN_ANOMALY":241.9949,"EPHEMERIS_TYPE":0,"CLASSIFICATION_TYPE":"U","NORAD_CAT_ID":68510,"ELEMENT_SET_NO":999,"REV_AT_EPOCH":211,"BSTAR":0.00074936288,"MEAN_MOTION_DOT":0.00150277,"MEAN_MOTION_DDOT":0},{"OBJECT_NAME":"STARLINK-37280","OBJECT_ID":"2026-068D","EPOCH":"2026-04-13T02:53:03.189120","MEAN_MOTION":15.80941264,"ECCENTRICITY":0.00010448,"INCLINATION":53.1594,"RA_OF_ASC_NODE":336.753,"ARG_OF_PERICENTER":90.9282,"MEAN_ANOMALY":269.186,"EPHEMERIS_TYPE":0,"CLASSIFICATION_TYPE":"U","NORAD_CAT_ID":68511,"ELEMENT_SET_NO":999,"REV_AT_EPOCH":211,"BSTAR":0.00077133387,"MEAN_MOTION_DOT":0.00154782,"MEAN_MOTION_DDOT":0},{"OBJECT_NAME":"STARLINK-37286","OBJECT_ID":"2026-068E","EPOCH":"2026-04-13T02:51:58.227552","MEAN_MOTION":15.80953705,"ECCENTRICITY":9.665e-5,"INCLINATION":53.1593,"RA_OF_ASC_NODE":336.7481,"ARG_OF_PERICENTER":109.6437,"MEAN_ANOMALY":250.4691,"EPHEMERIS_TYPE":0,"CLASSIFICATION_TYPE":"U","NORAD_CAT_ID":68512,"ELEMENT_SET_NO":999,"REV_AT_EPOCH":211,"BSTAR":0.00086844644,"MEAN_MOTION_DOT":0.00174868,"MEAN_MOTION_DDOT":0},{"OBJECT_NAME":"STARLINK-36250","OBJECT_ID":"2026-068F","EPOCH":"2026-04-13T04:21:55.443744","MEAN_MOTION":15.80949383,"ECCENTRICITY":8.599e-5,"INCLINATION":53.1593,"RA_OF_ASC_NODE":336.4258,"ARG_OF_PERICENTER":33.785,"MEAN_ANOMALY":326.3228,"EPHEMERIS_TYPE":0,"CLASSIFICATION_TYPE":"U","NORAD_CAT_ID":68513,"ELEMENT_SET_NO":999,"REV_AT_EPOCH":212,"BSTAR":0.00076670937,"MEAN_MOTION_DOT":0.00153891,"MEAN_MOTION_DDOT":0},{"OBJECT_NAME":"STARLINK-37251","OBJECT_ID":"2026-068G","EPOCH":"2026-04-13T02:49:48.710496","MEAN_MOTION":15.80940235,"ECCENTRICITY":0.00010682,"INCLINATION":53.1595,"RA_OF_ASC_NODE":336.7379,"ARG_OF_PERICENTER":72.3031,"MEAN_ANOMALY":287.8108,"EPHEMERIS_TYPE":0,"CLASSIFICATION_TYPE":"U","NORAD_CAT_ID":68514,"ELEMENT_SET_NO":999,"REV_AT_EPOCH":211,"BSTAR":0.00072040267,"MEAN_MOTION_DOT":0.00144332,"MEAN_MOTION_DDOT":0},{"OBJECT_NAME":"STARLINK-36293","OBJECT_ID":"2026-068H","EPOCH":"2026-04-13T04:19:45.913728","MEAN_MOTION":15.80961578,"ECCENTRICITY":7.742e-5,"INCLINATION":53.1593,"RA_OF_ASC_NODE":336.4165,"ARG_OF_PERICENTER":77.6333,"MEAN_ANOMALY":282.4776,"EPHEMERIS_TYPE":0,"CLASSIFICATION_TYPE":"U","NORAD_CAT_ID":68515,"ELEMENT_SET_NO":999,"REV_AT_EPOCH":212,"BSTAR":0.00098120045,"MEAN_MOTION_DOT":0.00198278,"MEAN_MOTION_DDOT":0},{"OBJECT_NAME":"STARLINK-36290","OBJECT_ID":"2026-068J","EPOCH":"2026-04-13T02:47:38.879808","MEAN_MOTION":15.80947239,"ECCENTRICITY":6.002e-5,"INCLINATION":53.1593,"RA_OF_ASC_NODE":336.728,"ARG_OF_PERICENTER":80.2708,"MEAN_ANOMALY":279.8382,"EPHEMERIS_TYPE":0,"CLASSIFICATION_TYPE":"U","NORAD_CAT_ID":68516,"ELEMENT_SET_NO":999,"REV_AT_EPOCH":211,"BSTAR":0.00073449313,"MEAN_MOTION_DOT":0.00147267,"MEAN_MOTION_DDOT":0},{"OBJECT_NAME":"STARLINK-36298","OBJECT_ID":"2026-068K","EPOCH":"2026-04-13T04:17:36.324960","MEAN_MOTION":15.80961737,"ECCENTRICITY":9.089e-5,"INCLINATION":53.1593,"RA_OF_ASC_NODE":336.4061,"ARG_OF_PERICENTER":59.4271,"MEAN_ANOMALY":300.6842,"EPHEMERIS_TYPE":0,"CLASSIFICATION_TYPE":"U","NORAD_CAT_ID":68517,"ELEMENT_SET_NO":999,"REV_AT_EPOCH":212,"BSTAR":0.0010057265,"MEAN_MOTION_DOT":0.00203373,"MEAN_MOTION_DDOT":0},{"OBJECT_NAME":"STARLINK-36857","OBJECT_ID":"2026-068L","EPOCH":"2026-04-13T02:44:24.642240","MEAN_MOTION":15.80965897,"ECCENTRICITY":9.581e-5,"INCLINATION":53.159,"RA_OF_ASC_NODE":336.7126,"ARG_OF_PERICENTER":82.1236,"MEAN_ANOMALY":277.9895,"EPHEMERIS_TYPE":0,"CLASSIFICATION_TYPE":"U","NORAD_CAT_ID":68518,"ELEMENT_SET_NO":999,"REV_AT_EPOCH":211,"BSTAR":0.0010733531,"MEAN_MOTION_DOT":0.00217497,"MEAN_MOTION_DDOT":0}]
